NORAD_CAT_ID,OBJECT_NAME,OBJECT_TYPE,EPOCH,MEAN_MOTION,ECCENTRICITY,INCLINATION,RA_OF_ASC_NODE,ARG_OF_PERICENTER,MEAN_ANOMALY,BSTAR,MEAN_MOTION_DOT,MEAN_MOTION_DDOT,TLE_LINE0,TLE_LINE1,TLE_LINE2,SEMIMAJOR_AXIS,PERIOD,APOGEE,PERIGEE,DECAYED
52681.0,STARLINK-4068,PAYLOAD,2023-08-26 10:37:12,15.08834256,0.0001336,53.2189,342.2066,91.2081,268.9064,2.4578e-05,1.03e-06,0.0,0 STARLINK-4068,1 52681U 22053AB  23238.44250883  .00000103  00000-0  24578-4 0  9990,2 52681  53.2189 342.2066 0001336  91.2081 268.9064 15.08834256 70913,6917.898,95.438,540.687,538.839,0.0
52681.0,STARLINK-4068,PAYLOAD,2023-08-26 12:12:35,15.08835835,0.0001373,53.2191,341.9091,92.595,267.52,3.9948e-05,3.48e-06,0.0,0 STARLINK-4068,1 52681U 22053AB  23238.50874775  .00000348  00000-0  39948-4 0  9997,2 52681  53.2191 341.9091 0001373  92.5950 267.5200 15.08835835 71316,6917.893,95.438,540.708,538.808,0.0
52681.0,STARLINK-4068,PAYLOAD,2023-08-27 07:17:13,15.08836674,0.0001392,53.2193,338.3411,96.6272,263.4879,2.5623e-05,1.2e-06,0.0,0 STARLINK-4068,1 52681U 22053AB  23239.30362993  .00000120  00000-0  25623-4 0  9993,2 52681  53.2193 338.3411 0001392  96.6272 263.4879 15.08836674 71439,6917.891,95.438,540.719,538.793,0.0
52681.0,STARLINK-4068,PAYLOAD,2023-08-27 13:38:46,15.08839383,0.0001389,53.2192,337.1513,94.4928,265.6223,4.2214e-05,3.84e-06,0.0,0 STARLINK-4068,1 52681U 22053AB  23239.56858845  .00000384  00000-0  42214-4 0  9994,2 52681  53.2192 337.1513 0001389  94.4928 265.6223 15.08839383 71086,6917.882,95.438,540.708,538.786,0.0
52681.0,STARLINK-4068,PAYLOAD,2023-08-27 18:24:55,15.08843811,0.0001382,53.2189,336.2581,105.4088,254.7057,8.956e-05,1.138e-05,0.0,0 STARLINK-4068,1 52681U 22053AB  23239.76730399  .00001138  00000-0  89560-4 0  9992,2 52681  53.2189 336.2581 0001382 105.4088 254.7057 15.08843811 71502,6917.869,95.437,540.69,538.778,0.0
52681.0,STARLINK-4068,PAYLOAD,2023-08-28 16:40:18,15.08846261,0.0001429,53.2196,332.0957,95.5987,264.5168,0.00018475,2.654e-05,0.0,0 STARLINK-4068,1 52681U 22053AB  23240.69466366  .00002654  00000-0  18475-3 0  9996,2 52681  53.2196 332.0957 0001429  95.5987 264.5168 15.08846261 71649,6917.861,95.437,540.715,538.738,0.0
52681.0,STARLINK-4068,PAYLOAD,2023-08-28 23:01:52,15.08836641,0.0001633,53.2193,330.9028,83.0767,277.0411,6.8603e-05,8.04e-06,0.0,0 STARLINK-4068,1 52681U 22053AB  23240.95963059  .00000804  00000-0  68603-4 0  9990,2 52681  53.2193 330.9028 0001633  83.0767 277.0411 15.08836641 71299,6917.891,95.438,540.885,538.626,0.0
52681.0,STARLINK-4068,PAYLOAD,2023-08-29 18:06:29,15.08848771,0.000163,53.2196,327.3352,83.8926,276.2252,0.00016346,2.315e-05,0.0,0 STARLINK-4068,1 52681U 22053AB  23241.75450341  .00002315  00000-0  16346-3 0  9999,2 52681  53.2196 327.3352 0001630  83.8926 276.2252 15.08848771 71802,6917.854,95.437,540.846,538.591,0.0
52681.0,STARLINK-4068,PAYLOAD,2023-08-30 05:14:11,15.08834605,0.0001314,53.2184,325.2565,85.8542,274.26,4.7645e-06,-2.12e-06,0.0,0 STARLINK-4068,1 52681U 22053AB  23242.21819096 -.00000212  00000-0  47645-5 0  9990,2 52681  53.2184 325.2565 0001314  85.8542 274.2600 15.08834605 71487,6917.897,95.438,540.671,538.853,0.0
52681.0,STARLINK-4068,PAYLOAD,2023-08-30 13:11:06,15.08841749,0.000148,53.2189,323.7698,70.1193,289.9959,-3.1887e-05,-7.95e-06,0.0,0 STARLINK-4068,1 52681U 22053AB  23242.54938637 -.00000795  00000-0 -31887-4 0  9996,2 52681  53.2189 323.7698 0001480  70.1193 289.9959 15.08841749 71538,6917.875,95.437,540.764,538.716,0.0
52681.0,STARLINK-4068,PAYLOAD,2023-08-30 17:57:16,15.08847271,0.0001294,53.218,322.8774,86.4784,273.6356,6.3019e-05,7.15e-06,0.0,0 STARLINK-4068,1 52681U 22053AB  23242.74810429  .00000715  00000-0  63019-4 0  9998,2 52681  53.2180 322.8774 0001294  86.4784 273.6356 15.08847271 71956,6917.858,95.437,540.618,538.828,0.0
52681.0,STARLINK-4068,PAYLOAD,2023-08-31 05:04:59,15.08831226,0.0001194,53.2189,320.7947,91.2187,268.8942,-3.2193e-05,-8e-06,0.0,0 STARLINK-4068,1 52681U 22053AB  23243.21179406 -.00000800  00000-0 -32193-4 0  9990,2 52681  53.2189 320.7947 0001194  91.2187 268.8942 15.08831226 71639,6917.907,95.438,540.598,538.946,0.0
52681.0,STARLINK-4068,PAYLOAD,2023-09-01 11:17:18,15.08847797,0.0001177,53.2175,315.1458,83.3829,276.7297,0.00020601,2.993e-05,0.0,0 STARLINK-4068,1 52681U 22053AB  23244.47034860  .00002993  00000-0  20601-3 0  9996,2 52681  53.2175 315.1458 0001177  83.3829 276.7297 15.08847797 71827,6917.857,95.437,540.536,538.907,0.0
52681.0,STARLINK-4068,PAYLOAD,2023-09-01 16:03:27,15.08853952,0.0001346,53.2181,314.2524,100.9612,259.1532,0.00029174,4.36e-05,0.0,0 STARLINK-4068,1 52681U 22053AB  23244.66906530  .00004360  00000-0  29174-3 0  9993,2 52681  53.2181 314.2524 0001346 100.9612 259.1532 15.08853952 72246,6917.838,95.437,540.634,538.772,0.0
52681.0,STARLINK-4068,PAYLOAD,2023-09-01 22:25:00,15.0884283,0.0001695,53.2169,313.0666,78.842,281.2762,0.00014229,1.977e-05,0.0,0 STARLINK-4068,1 52681U 22053AB  23244.93403098  .00001977  00000-0  14229-3 0  9990,2 52681  53.2169 313.0666 0001695  78.8420 281.2762 15.08842830 71897,6917.872,95.437,540.909,538.564,0.0
52681.0,STARLINK-4068,PAYLOAD,2023-09-02 15:54:14,15.08849897,6.09e-05,53.2212,309.7959,78.1352,281.9709,0.00017129,2.44e-05,0.0,0 STARLINK-4068,1 52681U 22053AB  23245.66266298  .00002440  00000-0  17129-3 0  9998,2 52681  53.2212 309.7959 0000609  78.1352 281.9709 15.08849897 72398,6917.85,95.437,540.136,539.294,0.0
52681.0,STARLINK-4068,PAYLOAD,2023-09-03 10:58:51,15.08849937,0.0002527,53.214,306.2238,93.5357,266.5924,0.00030937,4.64e-05,0.0,0 STARLINK-4068,1 52681U 22053AB  23246.45754586  .00004640  00000-0  30937-3 0  9994,2 52681  53.2140 306.2238 0002527  93.5357 266.5924 15.08849937 72121,6917.85,95.437,541.463,537.967,0.0
52681.0,STARLINK-4068,PAYLOAD,2023-09-03 20:31:11,15.0882361,0.0001768,53.2165,304.4428,82.5429,277.5764,-0.00030864,-5.195e-05,0.0,0 STARLINK-4068,1 52681U 22053AB  23246.85499418 -.00005195  00000-0 -30864-3 0  9995,2 52681  53.2165 304.4428 0001768  82.5429 277.5764 15.08823610 72183,6917.93,95.439,541.019,538.572,0.0
52681.0,STARLINK-4068,PAYLOAD,2023-09-04 12:25:03,15.08826927,0.0001482,53.2168,301.4677,94.433,265.6831,-4.4384e-06,-3.59e-06,0.0,0 STARLINK-4068,1 52681U 22053AB  23247.51739775 -.00000359  00000-0 -44384-5 0  9993,2 52681  53.2168 301.4677 0001482  94.4330 265.6831 15.08826927 72676,6917.92,95.438,540.811,538.76,0.0
52681.0,STARLINK-4068,PAYLOAD,2023-09-05 02:43:31,15.0883459,0.0001446,53.2169,298.7911,95.4561,264.6596,0.00013007,1.782e-05,0.0,0 STARLINK-4068,1 52681U 22053AB  23248.11355786  .00001782  00000-0  13007-3 0  9991,2 52681  53.2169 298.7911 0001446  95.4561 264.6596 15.08834590 72372,6917.897,95.438,540.762,538.762,0.0
52681.0,STARLINK-4068,PAYLOAD,2023-09-05 20:12:45,15.08845378,0.0001434,53.2168,295.52,95.4311,264.6845,0.00033048,4.976e-05,0.0,0 STARLINK-4068,1 52681U 22053AB  23248.84219656  .00004976  00000-0  33048-3 0  9991,2 52681  53.2168 295.5200 0001434  95.4311 264.6845 15.08845378 72482,6917.864,95.437,540.721,538.737,0.0
52681.0,STARLINK-4068,PAYLOAD,2023-09-06 12:06:37,15.08847952,0.0001438,53.2162,292.5463,97.0643,263.0513,0.00032799,4.937e-05,0.0,0 STARLINK-4068,1 52681U 22053AB  23249.50459608  .00004937  00000-0  32799-3 0  9997,2 52681  53.2162 292.5463 0001438  97.0643 263.0513 15.08847952 72973,6917.856,95.437,540.716,538.726,0.0
52681.0,STARLINK-4068,PAYLOAD,2023-09-06 15:17:23,15.08852162,0.000142,53.2159,291.9513,96.8382,263.2771,0.00035865,5.426e-05,0.0,0 STARLINK-4068,1 52681U 22053AB  23249.63707379  .00005426  00000-0  35865-3 0  9993,2 52681  53.2159 291.9513 0001420  96.8382 263.2771 15.08852162 72995,6917.843,95.437,540.691,538.726,0.0
52681.0,STARLINK-4068,PAYLOAD,2023-09-07 08:46:37,15.08843781,0.0001409,53.2162,288.6803,93.9386,266.1767,0.00014884,2.082e-05,0.0,0 STARLINK-4068,1 52681U 22053AB  23250.36571676  .00002082  00000-0  14884-3 0  9997,2 52681  53.2162 288.6803 0001409  93.9386 266.1767 15.08843781 72717,6917.869,95.437,540.709,538.759,0.0
52681.0,STARLINK-4068,PAYLOAD,2023-09-07 11:57:24,15.08843405,0.000145,53.2162,288.0854,93.2207,266.8951,0.00014138,1.963e-05,0.0,0 STARLINK-4068,1 52681U 22053AB  23250.49819667  .00001963  00000-0  14138-3 0  9995,2 52681  53.2162 288.0854 0001450  93.2207 266.8951 15.08843405 73129,6917.87,95.437,540.738,538.732,0.0
52681.0,STARLINK-4068,PAYLOAD,2023-09-07 19:54:19,15.08842938,0.0001503,53.2165,286.5974,92.0955,268.021,0.00013097,1.797e-05,0.0,0 STARLINK-4068,1 52681U 22053AB  23250.82939797  .00001797  00000-0  13097-3 0  9997,2 52681  53.2165 286.5974 0001503  92.0955 268.0210 15.08842938 73171,6917.871,95.437,540.776,538.697,0.0
52681.0,STARLINK-4068,PAYLOAD,2023-09-08 08:37:24,15.08847029,0.0001545,53.2172,284.2178,95.4684,264.6485,0.00016738,2.377e-05,0.0,0 STARLINK-4068,1 52681U 22053AB  23251.35931673  .00002377  00000-0  16738-3 0  9991,2 52681  53.2172 284.2178 0001545  95.4684 264.6485 15.08847029 73253,6917.859,95.437,540.793,538.655,0.0
52681.0,STARLINK-4068,PAYLOAD,2023-09-08 13:23:34,15.08849272,0.000149,53.217,283.3255,97.1052,263.011,0.00017399,2.483e-05,0.0,0 STARLINK-4068,1 52681U 22053AB  23251.55803527  .00002483  00000-0  17399-3 0  9991,2 52681  53.2170 283.3255 0001490  97.1052 263.0110 15.08849272 72893,6917.852,95.437,540.748,538.686,0.0
52681.0,STARLINK-4068,PAYLOAD,2023-09-08 19:45:07,15.08842543,0.0001601,53.2174,282.1362,92.5608,267.5568,9.2771e-05,1.189e-05,0.0,0 STARLINK-4068,1 52681U 22053AB  23251.82299861  .00001189  00000-0  92771-4 0  9991,2 52681  53.2174 282.1362 0001601  92.5608 267.5568 15.08842543 73322,6917.873,95.437,540.845,538.63,0.0
52681.0,STARLINK-4068,PAYLOAD,2023-09-09 11:38:58,15.08842221,0.0001494,53.217,279.1619,98.9805,261.1357,0.00015157,2.125e-05,0.0,0 STARLINK-4068,1 52681U 22053AB  23252.48539952  .00002125  00000-0  15157-3 0  9995,2 52681  53.2170 279.1619 0001494  98.9805 261.1357 15.08842221 73428,6917.874,95.437,540.772,538.705,0.0
